[{"OBJECT_NAME":"TECHDEMOSAT-1 (TDS-1)","OBJECT_ID":"2014-037H","EPOCH":"2026-03-09T22:08:12.399936","MEAN_MOTION":15.11581991,"ECCENTRICITY":0.0004745,"INCLINATION":98.3776,"RA_OF_ASC_NODE":51.4583,"ARG_OF_PERICENTER":234.81,"MEAN_ANOMALY":125.2683,"EPHEMERIS_TYPE":0,"CLASSIFICATION_TYPE":"U","NORAD_CAT_ID":40076,"ELEMENT_SET_NO":999,"REV_AT_EPOCH":63322,"BSTAR":0.00065800271,"MEAN_MOTION_DOT":0.00011104,"MEAN_MOTION_DDOT":0},{"OBJECT_NAME":"STARLINK-3602","OBJECT_ID":"2022-017Z","EPOCH":"2026-03-09T22:01:53.824512","MEAN_MOTION":15.08872509,"ECCENTRICITY":0.00022315,"INCLINATION":53.2178,"RA_OF_ASC_NODE":348.0946,"ARG_OF_PERICENTER":86.7575,"MEAN_ANOMALY":273.3672,"EPHEMERIS_TYPE":0,"CLASSIFICATION_TYPE":"U","NORAD_CAT_ID":51791,"ELEMENT_SET_NO":999,"REV_AT_EPOCH":22395,"BSTAR":-0.0011195022,"MEAN_MOTION_DOT":-0.00018077,"MEAN_MOTION_DDOT":0}]
